LEGION 1                
1 59625U 24081A   26200.22313185  .00001718  00000+0  90688-4 0  9998
2 59625  97.5009 277.7405 0007805 252.9533 107.0846 15.16858491122391
LEGION 2                
1 59626U 24081B   26200.25357614  .00001818  00000+0  95799-4 0  9996
2 59626  97.5008 277.8673 0010538 218.0175 142.0316 15.16838144122407
LEGION 3                
1 60452U 24146A   26200.22519204  .00001127  00000+0  71905-4 0  9995
2 60452  45.0014 218.7870 0007812 356.0076   4.0739 15.15667826106884
LEGION 4                
1 60453U 24146B   26200.29076499  .00001703  00000+0  10154-3 0  9995
2 60453  45.0023 310.3031 0009184 138.9826 221.1744 15.15696782105742
LEGION 5                
1 62900U 25025A   26200.22486621  .00001835  00000+0  10828-3 0  9990
2 62900  45.0013 129.6140 0007900 310.2079  49.8107 15.15716069 79357
LEGION 6                
1 62901U 25025B   26199.56495109  .00001713  00000+0  10203-3 0  9998
2 62901  45.0031  42.2989 0010702 293.9704  66.0053 15.15701148 80394
